[{"OBJECT_NAME":"SJ-9A","OBJECT_ID":"2012-056A","EPOCH":"2026-03-09T22:26:58.349184","MEAN_MOTION":14.85226998,"ECCENTRICITY":0.00245132,"INCLINATION":97.6612,"RA_OF_ASC_NODE":44.5525,"ARG_OF_PERICENTER":221.6494,"MEAN_ANOMALY":138.2855,"EPHEMERIS_TYPE":0,"CLASSIFICATION_TYPE":"U","NORAD_CAT_ID":38860,"ELEMENT_SET_NO":999,"REV_AT_EPOCH":68485,"BSTAR":0.00020141045,"MEAN_MOTION_DOT":1.684e-5,"MEAN_MOTION_DDOT":0},{"OBJECT_NAME":"SL-14 R\/B","OBJECT_ID":"1985-020B","EPOCH":"2026-03-09T17:39:17.382240","MEAN_MOTION":14.86817033,"ECCENTRICITY":0.00098043,"INCLINATION":82.5398,"RA_OF_ASC_NODE":156.9186,"ARG_OF_PERICENTER":305.7554,"MEAN_ANOMALY":54.2751,"EPHEMERIS_TYPE":0,"CLASSIFICATION_TYPE":"U","NORAD_CAT_ID":15593,"ELEMENT_SET_NO":999,"REV_AT_EPOCH":19621,"BSTAR":6.9116913e-5,"MEAN_MOTION_DOT":6.4e-6,"MEAN_MOTION_DDOT":0}]
